{
  "norad_id": 61673,
  "name": "STARLINK-32417",
  "history": [
    {
      "epoch": "2026-05-03T12:27:55.006560Z",
      "apogee_km": 476.1255430785113,
      "perigee_km": 474.3920451463482,
      "latitude_deg": 3.0284433875519453e-05,
      "longitude_deg": 147.7606215394518,
      "height_km": 476.17034431917534,
      "semi_major_axis_km": 6853.395794112429,
      "eccentricity": 0.00012647,
      "inclination_deg": 53.16,
      "raan_deg": 196.1617,
      "arg_perigee_deg": 90.891,
      "mean_anomaly_deg": 269.2236,
      "mean_motion_rev_day": 15.30185356
    },
    {
      "epoch": "2026-05-04T11:58:43.104000Z",
      "apogee_km": 476.05155879801987,
      "perigee_km": 474.46842409299643,
      "latitude_deg": -2.8082396696869137e-05,
      "longitude_deg": 149.5428094264767,
      "height_km": 476.3186265948912,
      "semi_major_axis_km": 6853.396991445508,
      "eccentricity": 0.0001155,
      "inclination_deg": 53.1591,
      "raan_deg": 191.61,
      "arg_perigee_deg": 101.6965,
      "mean_anomaly_deg": 258.4165,
      "mean_motion_rev_day": 15.30184955
    }
  ]
}